NORAD_CAT_ID,OBJECT_NAME,OBJECT_TYPE,EPOCH,MEAN_MOTION,ECCENTRICITY,INCLINATION,RA_OF_ASC_NODE,ARG_OF_PERICENTER,MEAN_ANOMALY,BSTAR,MEAN_MOTION_DOT,MEAN_MOTION_DDOT,TLE_LINE0,TLE_LINE1,TLE_LINE2,SEMIMAJOR_AXIS,PERIOD,APOGEE,PERIGEE,DECAYED
51149.0,STARLINK-3360,PAYLOAD,2022-11-05 14:22:53,15.08844511,0.0002183,53.2185,26.3147,35.8489,324.265,-1.4079e-06,-3.11e-06,0.0,0 STARLINK-3360,1 51149U 22005AX  22309.59922676 -.00000311  00000-0 -14079-5 0  9994,2 51149  53.2185  26.3147 0002183  35.8489 324.2650 15.08844511 44401,6917.8669999999975,95.437,541.242,538.221,0.0
51149.0,STARLINK-3360,PAYLOAD,2022-11-06 04:41:21,15.08836795,0.0001852,53.2183,23.6366,40.2626,319.8503,3.2098e-05,2.23e-06,0.0,0 STARLINK-3360,1 51149U 22005AX  22310.19539015  .00000223  00000-0  32098-4 0  9993,2 51149  53.2183  23.6366 0001852  40.2626 319.8503 15.08836795 45602,6917.89,95.438,541.036,538.474,0.0
51149.0,STARLINK-3360,PAYLOAD,2022-11-06 12:38:17,15.08833126,0.000171,53.2183,22.1489,45.7196,314.3936,-1.2197e-06,-3.07e-06,0.0,0 STARLINK-3360,1 51149U 22005AX  22310.52659366 -.00000307  00000-0 -12197-5 0  9996,2 51149  53.2183  22.1489 0001710  45.7196 314.3936 15.08833126 44544,6917.901,95.438,540.9490000000002,538.5830000000002,0.0
51149.0,STARLINK-3360,PAYLOAD,2022-11-07 10:53:41,15.08835308,0.0001922,53.2193,17.9879,41.9377,318.1762,-8.7959e-05,-1.688e-05,0.0,0 STARLINK-3360,1 51149U 22005AX  22311.45395800 -.00001688  00000-0 -87959-4 0  9999,2 51149  53.2193  17.9879 0001922  41.9377 318.1762 15.08835308 45795,6917.895,95.438,541.089,538.43,0.0
51149.0,STARLINK-3360,PAYLOAD,2022-11-07 14:04:28,15.08833038,0.0001856,53.2193,17.3927,42.3948,317.7188,-0.00011594,-2.133e-05,0.0,0 STARLINK-3360,1 51149U 22005AX  22311.58644042 -.00002133  00000-0 -11594-3 0  9995,2 51149  53.2193  17.3927 0001856  42.3948 317.7188 15.08833038 44703,6917.901999999999,95.438,541.0509999999998,538.4830000000002,0.0
51149.0,STARLINK-3360,PAYLOAD,2022-11-08 04:22:55,15.08841501,0.0001912,53.2188,14.7153,33.3534,326.7578,0.00011433,1.532e-05,0.0,0 STARLINK-3360,1 51149U 22005AX  22312.18258929  .00001532  00000-0  11433-3 0  9999,2 51149  53.2188  14.7153 0001912  33.3534 326.7578 15.08841501 45903,6917.876,95.437,541.063,538.418,0.0
51149.0,STARLINK-3360,PAYLOAD,2022-11-08 07:33:41,15.08849202,0.000189,53.2178,14.1206,31.5123,328.5982,0.00017122,2.439e-05,0.0,0 STARLINK-3360,1 51149U 22005AX  22312.31506186  .00002439  00000-0  17122-3 0  9993,2 51149  53.2178  14.1206 0001890  31.5123 328.5982 15.08849202 45921,6917.852,95.437,541.025,538.41,0.0
51149.0,STARLINK-3360,PAYLOAD,2022-11-08 10:44:27,15.08849924,0.0001878,53.2174,13.5251,31.2202,328.8901,0.00017798,2.546e-05,0.0,0 STARLINK-3360,1 51149U 22005AX  22312.44754092  .00002546  00000-0  17798-3 0  9996,2 51149  53.2174  13.5251 0001878  31.2202 328.8901 15.08849924 44835,6917.85,95.437,541.014,538.4159999999998,0.0
51149.0,STARLINK-3360,PAYLOAD,2022-11-08 13:55:13,15.08855307,0.0001926,53.2198,12.9325,32.2954,327.8155,0.00023097,3.391e-05,0.0,0 STARLINK-3360,1 51149U 22005AX  22312.58001658  .00003391  00000-0  23097-3 0  9992,2 51149  53.2198  12.9325 0001926  32.2954 327.8155 15.08855307 44859,6917.834,95.437,541.031,538.366,0.0
51149.0,STARLINK-3360,PAYLOAD,2022-11-09 13:46:02,15.0882717,0.0001961,53.2182,8.4712,35.1804,324.9317,-4.3844e-05,-9.86e-06,0.0,0 STARLINK-3360,1 51149U 22005AX  22313.57364179 -.00000986  00000-0 -43844-4 0  9994,2 51149  53.2182   8.4712 0001961  35.1804 324.9317 15.08827170 45000,6917.92,95.438,541.141,538.428,0.0
51149.0,STARLINK-3360,PAYLOAD,2022-11-10 10:26:03,15.08835713,0.0001963,53.2184,4.606,38.7435,321.3698,-0.00017031,-2.997e-05,0.0,0 STARLINK-3360,1 51149U 22005AX  22314.43476545 -.00002997  00000-0 -17031-3 0  9993,2 51149  53.2184   4.6060 0001963  38.7435 321.3698 15.08835713 45136,6917.893,95.438,541.116,538.401,0.0
51149.0,STARLINK-3360,PAYLOAD,2022-11-10 13:36:50,15.08828418,0.0002189,53.2195,4.0131,37.5494,322.565,-0.00022063,-3.797e-05,0.0,0 STARLINK-3360,1 51149U 22005AX  22314.56725279 -.00003797  00000-0 -22063-3 0  9998,2 51149  53.2195   4.0131 0002189  37.5494 322.5650 15.08828418 45151,6917.916,95.438,541.295,538.266,0.0
51149.0,STARLINK-3360,PAYLOAD,2022-11-11 03:55:19,15.08815922,0.0001784,53.2181,1.3366,38.9686,321.1434,6.0722e-07,-2.78e-06,0.0,0 STARLINK-3360,1 51149U 22005AX  22315.16341917 -.00000278  00000-0  60722-6 0  9995,2 51149  53.2181   1.3366 0001784  38.9686 321.1434 15.08815922 46358,6917.954000000002,95.439,541.053,538.585,0.0
51149.0,STARLINK-3360,PAYLOAD,2022-11-11 11:52:14,15.0882978,0.0002156,53.2184,359.8489,39.9243,320.1907,6.0548e-05,6.75e-06,0.0,0 STARLINK-3360,1 51149U 22005AX  22315.49461353  .00000675  00000-0  60548-4 0  9992,2 51149  53.2184 359.8489 0002156  39.9243 320.1907 15.08829780 46409,6917.9119999999975,95.438,541.268,538.285,0.0
51149.0,STARLINK-3360,PAYLOAD,2022-11-11 19:49:10,15.08831687,0.0002162,53.2188,358.3622,42.3302,317.7857,0.00020995,3.054e-05,0.0,0 STARLINK-3360,1 51149U 22005AX  22315.82581134  .00003054  00000-0  20995-3 0  9994,2 51149  53.2188 358.3622 0002162  42.3302 317.7857 15.08831687 45344,6917.906,95.438,541.266,538.275,0.0
51149.0,STARLINK-3360,PAYLOAD,2022-11-12 10:07:37,15.08842037,0.0001945,53.2178,355.6838,36.2154,323.8969,0.00019835,2.87e-05,0.0,0 STARLINK-3360,1 51149U 22005AX  22316.42196692  .00002870  00000-0  19835-3 0  9998,2 51149  53.2178 355.6838 0001945  36.2154 323.8969 15.08842037 46543,6917.874,95.437,541.085,538.394,0.0
51149.0,STARLINK-3360,PAYLOAD,2022-11-12 19:39:56,15.08849454,0.000213,53.2182,353.8999,36.7318,323.382,0.00023347,3.43e-05,0.0,0 STARLINK-3360,1 51149U 22005AX  22316.81940047  .00003430  00000-0  23347-3 0  9998,2 51149  53.2182 353.8999 0002130  36.7318 323.3820 15.08849454 45494,6917.851,95.437,541.19,538.243,0.0
51149.0,STARLINK-3360,PAYLOAD,2022-11-13 11:33:48,15.08833894,0.0002064,53.2184,350.9279,40.2922,319.8223,2.7559e-05,1.5e-06,0.0,0 STARLINK-3360,1 51149U 22005AX  22317.48181622  .00000150  00000-0  27559-4 0  9994,2 51149  53.2184 350.9279 0002064  40.2922 319.8223 15.08833894 46705,6917.899,95.438,541.192,538.336,0.0
51149.0,STARLINK-3360,PAYLOAD,2022-11-14 08:13:49,15.08844624,0.0002119,53.2181,347.06199999999984,38.4082,321.7061,-5.4956e-05,-1.163e-05,0.0,0 STARLINK-3360,1 51149U 22005AX  22318.34293173 -.00001163  00000-0 -54956-4 0  9993,2 51149  53.2181 347.0620 0002119  38.4082 321.7061 15.08844624 46835,6917.866,95.437,541.197,538.265,0.0
51149.0,STARLINK-3360,PAYLOAD,2022-11-14 11:24:35,15.08842646,0.0002154,53.2181,346.467,39.4986,320.6163,2.2183e-05,6.5e-07,0.0,0 STARLINK-3360,1 51149U 22005AX  22318.47541016  .00000065  00000-0  22183-4 0  9994,2 51149  53.2181 346.4670 0002154  39.4986 320.6163 15.08842646 45748,6917.871999999999,95.437,541.227,538.247,0.0
51149.0,STARLINK-3360,PAYLOAD,2022-11-14 19:21:30,15.08856849,0.0002241,53.2182,344.9804,36.8691,323.2455,-5.5583e-05,-1.173e-05,0.0,0 STARLINK-3360,1 51149U 22005AX  22318.80660147 -.00001173  00000-0 -55583-4 0  9991,2 51149  53.2182 344.9804 0002241  36.8691 323.2455 15.08856849 46904,6917.829000000002,95.436,541.244,538.144,0.0
51149.0,STARLINK-3360,PAYLOAD,2022-11-15 04:53:49,15.08843366,0.0002129,53.2185,343.1961,37.7461,322.368,1.1055e-05,-1.12e-06,0.0,0 STARLINK-3360,1 51149U 22005AX  22319.20404630 -.00000112  00000-0  11055-4 0  9996,2 51149  53.2185 343.1961 0002129  37.7461 322.3680 15.08843366 46968,6917.87,95.437,541.2080000000002,538.262,0.0
51149.0,STARLINK-3360,PAYLOAD,2022-11-15 11:15:22,15.08839495,0.0002146,53.2185,342.0073,38.5724,321.5421,2.6175e-05,1.28e-06,0.0,0 STARLINK-3360,1 51149U 22005AX  22319.46900851  .00000128  00000-0  26175-4 0  9995,2 51149  53.2185 342.0073 0002146  38.5724 321.5421 15.08839495 45893,6917.882,95.438,541.232,538.262,0.0
51149.0,STARLINK-3360,PAYLOAD,2022-11-15 19:12:18,15.08829319,0.0002198,53.2182,340.5204,38.778,321.3369,2.8536e-06,-2.43e-06,0.0,0 STARLINK-3360,1 51149U 22005AX  22319.80021694 -.00000243  00000-0  28536-5 0  9995,2 51149  53.2182 340.5204 0002198  38.7780 321.3369 15.08829319 47053,6917.913000000001,95.438,541.299,538.257,0.0
51149.0,STARLINK-3360,PAYLOAD,2022-11-16 11:06:09,15.08838844,0.0002422,53.2173,337.5472,30.1702,329.9429,2.1894e-05,6e-07,0.0,0 STARLINK-3360,1 51149U 22005AX  22320.46261219  .00000060  00000-0  21894-4 0  9993,2 51149  53.2173 337.5472 0002422  30.1702 329.9429 15.08838844 47151,6917.884,95.438,541.424,538.073,0.0
51149.0,STARLINK-3360,PAYLOAD,2022-11-17 12:32:19,15.08847852,0.0002273,53.2173,332.7886,32.3382,327.7749,6.5555e-05,7.55e-06,0.0,0 STARLINK-3360,1 51149U 22005AX  22321.52244381  .00000755  00000-0  65555-4 0  9995,2 51149  53.2173 332.7886 0002273  32.3382 327.7749 15.08847852 46204,6917.856,95.437,541.294,538.149,0.0
51149.0,STARLINK-3360,PAYLOAD,2022-11-18 12:23:06,15.08846486,0.000222,53.2177,328.3275,37.4613,322.6533,-0.00010433,-1.949e-05,0.0,0 STARLINK-3360,1 51149U 22005AX  22322.51605017 -.00001949  00000-0 -10433-3 0  9994,2 51149  53.2177 328.3275 0002220  37.4613 322.6533 15.08846486 47462,6917.861,95.437,541.261,538.19,0.0
51149.0,STARLINK-3360,PAYLOAD,2022-11-19 01:06:12,15.08837578,0.0002289,53.2175,325.9485,35.8904,324.2241,-4.4982e-05,-1.004e-05,0.0,0 STARLINK-3360,1 51149U 22005AX  22323.04597606 -.00001004  00000-0 -44982-4 0  9996,2 51149  53.2175 325.9485 0002289  35.8904 324.2241 15.08837578 47541,6917.888000000001,95.438,541.336,538.169,0.0
51149.0,STARLINK-3360,PAYLOAD,2022-11-19 07:27:44,15.08837679,0.0002387,53.2173,324.7592,35.4511,324.6639,-4.3182e-05,-9.76e-06,0.0,0 STARLINK-3360,1 51149U 22005AX  22323.31093678 -.00000976  00000-0 -43182-4 0  9994,2 51149  53.2173 324.7592 0002387  35.4511 324.6639 15.08837679 46472,6917.887,95.438,541.404,538.101,0.0
